#aV2009  8 26  0  0   .00000000      96 DD+AD WGS84 FIT  NGA
## 1546 259200.00000000   900.00000000 55069  .0000000000000
+   32     1  2  3  4  5  6  7  8  9 10 11 12 13 14 15 16 17
+         18 19 20 21 22 23 24 25 26 27 28 29 30 31 32  0  0
+          0  0  0  0  0  0  0  0  0  0  0  0  0  0  0  0  0
+          0  0  0  0  0  0  0  0  0  0  0  0  0  0  0  0  0
+          0  0  0  0  0  0  0  0  0  0  0  0  0  0  0  0  0
++         0  0  0  0  0  0  0  0  0  0  0  0  0  0  0  0  0
++         0  0  0  0  0  0  0  0  0  0  0  0  0  0  0  0  0
++         0  0  0  0  0  0  0  0  0  0  0  0  0  0  0  0  0
++         0  0  0  0  0  0  0  0  0  0  0  0  0  0  0  0  0
++         0  0  0  0  0  0  0  0  0  0  0  0  0  0  0  0  0
%c cc cc ccc ccc cccc cccc cccc cccc ccccc ccccc ccccc ccccc
%c cc cc ccc ccc cccc cccc cccc cccc ccccc ccccc ccccc ccccc
%f  0.0000000  0.000000000  0.00000000000  0.000000000000000
%f  0.0000000  0.000000000  0.00000000000  0.000000000000000
%i    0    0    0    0      0      0      0      0         0
%i    0    0    0    0      0      0      0      0         0
/*      NGA, ST. LOUIS,MO.                                  
/*   EPHEMERIS COMPUTED FROM  3 DAYS OF DATA                
/* CCCCCCCCCCCCCCCCCCCCCCCCCCCCCCCCCCCCCCCCCCCCCCCCCCCCCCCCC
/* CCCCCCCCCCCCCCCCCCCCCCCCCCCCCCCCCCCCCCCCCCCCCCCCCCCCCCCCC
*  2009  8 26 12 45   .00000000                                                 
P  1  16680.513242  -8907.815710  18510.111832    -58.196717                    
V  1  -6201.116770  22971.394389  16654.304578       .007846                    
P  2  11212.422715  22539.526255   9033.692817    167.827130                    
V  2  -9729.141975  -6712.699205  28163.779558       .025633                    
P  3 -10532.773209 -13151.163284 -20917.313241    438.762904                    
V  3  24506.047300  -8386.275312  -6822.369691       .049713                    
P  4    899.328419  20125.389049  16985.299482   -236.906288                    
V  4 -16128.002769 -15205.322137  19082.404808      -.171025                    
P  5  -5545.498789  25590.275935  -4424.665411   -104.463779                    
V  5  -4416.054113   4381.225378  31126.718269       .146408                    
P  6  -5510.862859 -14780.333611 -21187.442026    227.019329                    
V  6  26623.949733  -6634.576413  -2194.026963       .078611                    
P  7 -16965.076723   1822.922772 -20413.427172     12.672497                    
V  7 -16203.656435 -20108.654521  11542.566165      -.006860                    
P  8  -7993.444767  13029.694508 -21687.262793   -218.468034                    
V  8 -17099.008115 -21474.970803  -7114.055234      -.016746                    
P  9  20599.501590  14466.011972   7905.194862     74.045676                    
V  9   5758.396105   9541.979880 -29909.433094       .020673                    
P 10   4050.659757  20918.026395 -15804.983113    -22.104944                    
V 10  -9048.404727  17881.603371  21899.939432      -.008039                    
P 11 -23618.891615  -9317.635896   8164.359623    -16.790997                    
V 11  -5961.380402  -9894.131008 -27429.223488      -.016765                    
P 12  14308.244641   4795.633294  21911.890368   -228.559710                    
V 12  -9182.015332  26097.984940    405.820678       .058575                    
P 13 -25465.255011   6211.280750  -4470.446600    303.737366                    
V 13  -5660.470184   -951.275950  31820.365975       .005857                    
P 14  14456.758290 -13833.926765  17525.171945    -59.780433                    
V 14  21933.055217  -2029.551980 -19962.961647       .053803                    
P 15  17536.813105   9156.945398 -17728.400328   -315.956030                    
V 15 -21744.697380   6204.870464 -18211.371820      -.015658                    
P 16    732.205136 -23912.754076 -11218.392081     19.144137                    
V 16   7284.908410 -12640.938573  27540.775242      -.037945                    
P 17 -14561.652983  14451.807370  16833.342222     80.122603                    
V 17 -21330.133299   1735.751571 -20218.239027       .028305                    
P 18  16471.288462 -15181.136218 -13727.400043      8.029592                    
V 18  -3625.260241  17923.426449 -24128.249774       .027926                    
P 19 -19036.984298  -9251.468947 -16156.195157     13.539947                    
V 19  20174.520908  -4124.240838 -21075.959919      -.016059                    
P 20 -15599.987821  -2145.653629  21264.776045     73.821771                    
V 20   7961.566732 -26186.327927   3223.605547      -.009104                    
P 21  15716.463906  -5011.107344 -20634.144463     -5.404748                    
V 21  16744.638069  20985.822635   6931.455039      -.022421                    
P 22  11823.879832 -23445.101226  -3528.916630    192.442997                    
V 22   1628.731832   5674.018401 -30875.939676      -.007195                    
P 23 -25120.208203  -1572.997539   8909.539866    389.187079                    
V 23  10703.700521  -4086.691869  29028.603600      -.003221                    
P 24  20035.029782   8099.054428 -15144.021913    215.482891                    
V 24  10105.800330  16955.674993  22501.090909       .031260                    
P 25 -20418.189578  -4480.503040 -15932.217745    568.876714                    
V 25 -13756.343297 -15870.750660  21820.796835       .156746                    
P 26  22900.018028  -9421.249079   9736.895252     64.050689                    
V 26  13034.540863   -332.834346 -28846.298602      -.005392                    
P 27  20399.032549  16556.989563   4629.198706     77.456642                    
V 27   1889.703700   5142.318608 -31357.351185       .030952                    
P 28 -12774.614987  22255.823588  -5734.966985    -26.224816                    
V 28    169.251088  -8403.332833 -30972.184079       .000506                    
P 29  25966.606519  -5249.907123  -1426.608166     52.007825                    
V 29   2369.741310   2521.160779  31708.086776       .032880                    
P 30  16416.303666  -7502.637026  19078.759646    171.774131                    
V 30  -5764.382700  24471.540524  14368.021714       .030518                    
P 31  -3168.153935 -20725.075704  16426.455817    -64.863492                    
V 31  14650.685632  14433.152191  21438.127686       .001182                    
P 32 -11578.564933 -11016.363783  21640.289400    208.183030                    
V 32  11169.626753 -24058.856785  -6117.113741      -.067353                    
EOF
